# From MPC119999
C/2019 Y1 (ATLAS),e,73.3510,31.5530,57.9217,86.24187,0.0012306,0.99038087,0.0000,03/15.8856/2020,2000,g 13.7,4.0
# From MPEC 2022-YN2
C/2019 Y4 (ATLAS),e,45.2668,120.6350,177.4539,355.2846,0.0001472,0.99928317,0.0000,05/30.9526/2020,2000,g 11.8,6.0
# From MPEC 2020-L06
C/2019 Y4-A (ATLAS),h,05/30.9784/2020,45.7105,120.9956,177.2877,1.001419,0.252832,2000,11.6,6.0
# From MPEC 2020-L06
C/2019 Y4-B (ATLAS),e,45.3460,120.6904,177.4206,1520,0.0000166,0.99983263,0.0000,05/30.9551/2020,2000,g 12.8,6.0
# From MPEC 2020-L06
C/2019 Y4-C (ATLAS),h,05/30.9337/2020,45.4927,120.7219,177.3212,1.002142,0.253896,2000,12.7,6.0
# From MPEC 2020-L06
C/2019 Y4-D (ATLAS),e,45.5364,121.0982,177.4589,68.47367,0.0017395,0.99630163,0.0000,05/31.0573/2020,2000,g 12.5,6.0
# From MPEC 2021-P47
C/2019 Y5 (PANSTARRS),e,82.7742,51.7609,303.5474,772.1615,0.0000459,0.99363043,0.0000,08/18.0709/2019,2000,g 11.0,4.0
# From MPEC 2022-UY9
A/2020 A1,e,149.0391,119.2231,302.5414,25.71197,0.0075596,0.93517341,8.5688,01/09.0/2023,2000,g 18.0,2.0
# From MPEC 2022-YN2
C/2020 A2 (NEOWISE),e,120.6585,286.3217,68.1168,1521,0.0000166,0.99935909,0.0000,01/08.5659/2020,2000,g 13.5,4.0
# From MPEC 2022-N37
C/2020 A3 (ATLAS),h,06/29.3131/2019,146.6777,120.8026,268.3962,1.001081,5.762217,2000,8.0,4.0
# From MPEC 2022-P91
P/2020 A4 (PANSTARRS-Lemmon),e,24.9903,312.3938,144.7626,8.193625,0.0420233,0.65385486,48.0423,01/09.0/2023,2000,g 15.0,4.0
# From MPEC 2020-N08
A/2020 B1,e,18.5167,309.9766,154.7144,51.35884,0.0026778,0.96608254,2.9719,01/09.0/2023,2000,g 21.0,2.0
# From MPEC 2022-N37
C/2020 B3 (Rankin),e,20.7099,185.8506,324.9325,962.2686,0.0000330,0.99653076,0.0000,10/19.3917/2019,2000,g 13.0,4.0
# From MPEC 2022-H04
P/2020 B4 (Sheppard),e,11.6095,185.9794,342.1243,7.966465,0.0438334,0.19172083,18.1886,01/09.0/2023,2000,g 10.5,4.0
# From MPEC 2023-A16
C/2020 F2 (ATLAS),h,07/15.2434/2022,163.5873,250.2833,48.3409,1.005444,8.816937,2000,4.5,4.0
# From MPEC 2021-O56
C/2020 F3 (NEOWISE),e,129.0819,61.0626,37.3490,351.8983,0.0001493,0.99915989,0.0000,07/03.6566/2020,2000,g  7.5,5.2
# From MPEC 2022-YN2
C/2020 F5 (MASTER),e,52.2159,350.5069,310.6829,183.9293,0.0003951,0.97649272,0.0000,03/17.8894/2021,2000,g  6.5,3.2
# From MPEC 2020-L06
C/2020 F6 (PANSTARRS),e,174.5830,207.9095,344.5791,408.4987,0.0001194,0.99141452,0.0000,04/11.7579/2020,2000,g 14.5,2.8
# From MPEC 2023-A16
C/2020 F7 (Lemmon),e,93.9504,321.8760,227.9515,600.6583,0.0000670,0.99112305,0.0000,11/13.7882/2021,2000,g  7.0,4.0
# From MPEC 2020-KB7
C/2020 F8 (SWAN),e,110.6707,259.8960,68.1385,258.1729,0.0002376,0.99833647,0.0000,05/27.4491/2020,2000,g 10.0,4.0
# From MPEC 2020-L06
P/2020 G1 (Pimentel),e,18.5049,240.1191,207.6018,3.608537,0.1437829,0.86026746,147.7380,01/09.0/2023,2000,g 17.0,4.0
# From MPEC 2022-YB4
C/2020 H2 (Pruyne),e,124.9419,277.6616,26.6813,190.9521,0.0003735,0.99564309,0.0000,04/27.8154/2020,2000,g 14.0,3.2
# From MPEC 2020-HM1
C/2020 H3 (Wierzchos),p,06/05.7162/2020,62.5292,30.4456,2.300288,270.6227,2000,13.5,4.0
# From MPEC 2020-L06
C/2020 H4 (Leonard),e,84.5009,307.6765,117.5474,47.88574,0.0029744,0.98068627,0.0000,08/29.6306/2020,2000,g 15.0,3.2
# From MPEC 2022-N37
C/2020 H5 (Robinson),e,70.2530,210.6274,326.3564,3696,0.0000044,0.99747240,0.0000,12/11.0738/2020,2000,g  5.0,4.0
# From MPEC 2022-YB4
C/2020 H6 (ATLAS),e,79.9775,213.7179,20.3196,29963,0.0000002,0.99984306,0.0000,09/30.8369/2021,2000,g  8.0,3.2
# From MPEC 2020-KB7
C/2020 H7 (Lemmon),e,135.9235,323.5194,82.6780,1405,0.0000187,0.99685380,0.0000,06/02.9510/2020,2000,g 11.0,4.0
# From MPEC 2021-N06
C/2020 H8 (PANSTARRS),e,99.6808,68.4212,128.9454,595.3430,0.0000679,0.99214646,0.0000,06/04.5014/2020,2000,g 10.5,4.0
# From MPEC 2022-ED3
A/2020 H9,e,137.8781,213.1772,312.8524,372.5495,0.0001371,0.99308692,0.0000,12/21.5437/2019,2000,g 18.0,2.0
# From MPEC 2023-A16
C/2020 J1 (SONEAR),h,04/18.6532/2021,142.3043,226.5999,341.7561,1.000798,3.354208,2000,8.5,3.2
# From MPEC 2022-X67
C/2020 K1 (PANSTARRS),h,05/09.0746/2023,89.6682,94.3547,213.9834,1.000013,3.073286,2000,5.5,4.0
# From MPEC 2021-N06
C/2020 K2 (PANSTARRS),h,08/06.3583/2020,91.0317,288.3841,67.3496,1.003947,8.879787,2000,10.8,4.0
# From MPEC 2020-KF9
C/2020 K3 (Leonard),p,06/01.0032/2020,129.0152,64.4924,1.583069,28.3546,2000,14.5,4.0
# From MPEC 2020-L06
C/2020 K4 (PANSTARRS),e,125.5810,264.1744,308.8562,23.95453,0.0084066,0.92676695,8.7526,01/09.0/2023,2000,g 16.5,4.0
# From MPEC 2021-R75
C/2020 K5 (PANSTARRS),h,06/05.5230/2021,67.1257,86.1647,249.6067,1.001433,1.536401,2000,11.0,4.0
# From MPEC 2022-PB4
C/2020 K6 (Rankin),h,09/15.8338/2021,103.6497,291.5454,44.3348,1.003665,5.868862,2000,8.0,4.0
# From MPEC 2022-L66
C/2020 K7 (PANSTARRS),e,32.0408,286.0736,358.2636,99.34332,0.0009954,0.93564710,1.1632,01/09.0/2023,2000,g  8.0,4.0
# From MPEC 2021-P47
C/2020 K8 (Catalina-ATLAS),h,09/14.7422/2020,31.4296,181.5461,259.9606,1.000167,0.472422,2000,15.0,3.2
# From MPEC 2021-BE3
P/2020 K9 (Lemmon-PANSTARRS),e,23.2093,166.2412,197.0279,4.202055,0.1144225,0.32136079,79.5988,01/09.0/2023,2000,g 12.5,4.0
# From MPEC 2021-U31
P/2020 M1 (PANSTARRS),e,8.5439,142.6526,72.6264,5.317073,0.0803887,0.47435268,89.1520,01/09.0/2023,2000,g 14.5,4.0
# From MPEC 2022-H30
C/2020 M3 (ATLAS),e,23.4752,71.1762,328.5323,27.05663,0.0070031,0.95313120,5.6387,01/09.0/2023,2000,g 14.5,4.0
# From MPEC 2022-OB6
A/2020 M4,h,11/24.2355/2020,160.1269,348.6219,104.6475,1.000967,5.951728,2000,14.5,2.0
# From MPC xxxxx
P/2020 MK4 (PANSTARRS),e,6.8035,0.7130,108.6624,6.198877,0.0638608,0.01147930,245.2661,01/09.0/2023,2000,g  8.0,4.0
# From MPEC 2022-YN2
C/2020 M5 (ATLAS),h,08/19.8624/2021,93.2230,352.0927,126.3156,1.000410,3.003393,2000,9.0,4.0
# From MPEC 2022-GA9
C/2020 N1 (PANSTARRS),h,03/12.2880/2021,29.7180,279.9406,186.7558,1.000440,1.319024,2000,12.5,4.0
# From MPEC 2021-P47
C/2020 N2 (ATLAS),e,161.0345,257.1436,331.3118,104.3640,0.0009244,0.98281427,0.0000,08/23.9858/2020,2000,g 16.0,3.2
# From MPEC 2022-YB4
P/2020 O1 (Lemmon-PANSTARRS),e,5.2255,175.9747,104.5189,2.645442,0.2290640,0.11895708,224.9296,01/09.0/2023,2000,g 15.5,4.0
# From MPEC 2022-Y15
C/2020 O2 (Amaral),h,08/28.6098/2021,71.7585,256.7676,10.3128,1.001855,4.862550,2000,8.0,3.2
# From MPEC 2020-SI8
P/2020 O3 (PANSTARRS),e,8.4438,266.8189,81.5558,4.648347,0.0983459,0.10330754,69.7611,01/09.0/2023,2000,g 12.0,4.0
# From MPEC 2021-BE3
C/2020 P1 (NEOWISE),h,10/20.3519/2020,45.1557,53.4918,8.8877,1.000300,0.341125,2000,14.0,3.2
# From MPEC 2022-UY9
C/2020 P3 (ATLAS),h,04/21.1598/2021,61.8895,19.4654,82.2659,1.001013,6.812407,2000,6.0,4.0
# From MPEC 2022-PB4
C/2020 PV6 (PANSTARRS),e,128.2328,329.1480,71.3915,42.05535,0.0036139,0.94541892,1.6982,01/09.0/2023,2000,g 10.0,4.0
# From MPEC 2022-L66
C/2020 Q1 (Borisov),e,142.9361,52.3958,9.9441,60.76813,0.0020806,0.97832605,0.0000,08/14.4443/2020,2000,g 14.0,4.0
# From MPEC 2022-X67
C/2020 R2 (PANSTARRS),e,53.2281,195.0927,211.7790,406.7694,0.0001201,0.98846430,0.0000,02/24.8016/2022,2000,g  9.0,4.0
# From MPEC 2022-K19
C/2020 R4 (ATLAS),e,164.4562,323.2739,46.7040,99.83344,0.0009881,0.98970635,0.0000,03/02.1034/2021,2000,g 13.5,4.0
# From MPEC 2020-W26
P/2020 R5 (PANSTARRS),e,11.4467,272.9730,82.5784,4.986447,0.0885151,0.31461281,84.4951,01/09.0/2023,2000,g  9.5,6.0
# From MPEC 2021-Y10
C/2020 R6 (Rankin),e,82.8101,12.1772,271.9926,322.9318,0.0001698,0.99029767,0.0000,09/08.8122/2019,2000,g 11.0,4.0
# From MPEC 2023-A16
C/2020 R7 (ATLAS),h,09/16.2495/2022,114.8934,268.2821,347.8407,1.000227,2.956007,2000,7.0,3.2
# From MPEC 2021-BE3
P/2020 S1 (PANSTARRS),e,13.7300,129.4632,254.9988,5.991322,0.0672079,0.50773497,48.4927,01/09.0/2023,2000,g 14.0,4.0
# From MPEC 2022-ST7
C/2020 S2 (PANSTARRS),e,22.4043,197.6626,202.3302,10.21702,0.0301799,0.82807735,22.5700,01/09.0/2023,2000,g 17.0,4.0
# From MPEC 2022-C56
C/2020 S3 (Erasmus),e,20.0128,222.6069,350.0955,156.0224,0.0005057,0.99746081,0.0000,12/12.2195/2020,2000,g 13.5,3.2
# From MPEC 2023-A16
C/2020 S4 (PANSTARRS),h,02/09.2345/2023,20.5703,117.7223,20.9901,1.001142,3.369754,2000,8.5,3.2
# From MPEC 2021-BE3
P/2020 S5 (PANSTARRS),e,12.3493,316.0018,53.1932,4.053668,0.1207624,0.33856187,106.6264,01/09.0/2023,2000,g 14.5,4.0
# From MPEC 2021-BE3
P/2020 S7 (PANSTARRS),e,16.0892,328.0264,40.5592,5.029635,0.0873774,0.41073478,68.2684,01/09.0/2023,2000,g 14.5,4.0
# From MPEC 2021-P47
C/2020 S8 (Lemmon),e,108.5274,24.0675,160.2941,267.1376,0.0002257,0.99115719,0.0000,04/10.8576/2021,2000,g 12.5,4.0
# From MPEC 2022-ST7
C/2020 T2 (Palomar),e,27.8559,82.9807,150.5114,315.6406,0.0001758,0.99348284,0.0000,07/11.1163/2021,2000,g 11.0,3.2
# From MPEC 2021-N06
P/2020 T3 (PANSTARRS),e,7.2981,73.9919,357.0361,3.517026,0.1494310,0.59200267,107.3386,01/09.0/2023,2000,g 18.0,3.2
# From MPEC 2021-N06
C/2020 T4 (PANSTARRS),h,07/05.2959/2021,83.8345,50.6142,79.6088,1.000181,2.191661,2000,13.0,3.2
# From MPEC 2021-BE3
C/2020 T5 (Lemmon),e,66.5657,237.8462,90.3282,772.5581,0.0000459,0.99755262,0.0000,10/09.4396/2020,2000,g 16.0,4.0
# From MPEC 2021-N06
P/2020 U2 (PANSTARRS),e,6.4201,342.8913,84.6368,3.777998,0.1342182,0.51103810,99.8663,01/09.0/2023,2000,g 18.0,4.0
# From MPEC 2021-W31
C/2020 U3 (Rankin),e,30.1611,282.6532,124.3206,66.30487,0.0018255,0.96566323,1.2812,01/09.0/2023,2000,g 15.0,4.0
# From MPEC 2022-YN2
C/2020 U4 (PANSTARRS),h,04/08.9696/2022,167.0342,120.1111,69.7353,1.002691,5.355363,2000,7.0,4.0
# From MPEC 2022-YB4
C/2020 U5 (PANSTARRS),e,97.2711,107.3298,75.4292,3900,0.0000040,0.99903690,0.0000,04/27.9455/2022,2000,g  8.0,4.0
# From MPEC 2023-A16
C/2020 V2 (ZTF),h,05/08.5673/2023,131.6109,212.3724,162.4308,1.000883,2.227842,2000,4.9,4.0
# From MPEC 2022-X67
P/2020 V3 (PANSTARRS),e,23.0330,198.2522,249.3287,8.381790,0.0406162,0.25665525,28.4036,01/09.0/2023,2000,g  8.3,4.0
# From MPEC 2022-K19
P/2020 V4 (Rankin),e,14.2441,203.4838,257.0151,9.364291,0.0343947,0.45021308,18.5726,01/09.0/2023,2000,g  9.0,4.0
# From MPEC 2021-BE3
